# From MPC112394
232P/Hill,e,14.6442,56.0290,53.2107,4.473775,0.1041580,0.33517105,167.2517,08/29.0/2023,2000,g 11.5,4.0
# From MPEC 2021-N06
233P/La Sagra,e,11.2901,74.9200,26.9536,3.027929,0.1870620,0.41246775,198.4941,08/29.0/2023,2000,g 15.0,4.0
# From MPEC 2022-K19
234P/LINEAR,e,11.5355,179.5676,357.3901,3.795577,0.1332869,0.25665994,303.8181,08/29.0/2023,2000,g 12.0,4.0
# From MPC110497
235P/LINEAR,e,10.6025,202.1598,346.9835,3.516539,0.1494621,0.43447281,236.9882,08/29.0/2023,2000,g 12.0,4.0
# From MPEC 2023-J29
236P/LINEAR,e,16.3538,245.5693,119.3706,3.727102,0.1369768,0.50940558,288.1318,08/29.0/2023,2000,g 14.0,4.0
# From MPEC 2023-QF0
237P/LINEAR,e,14.0166,245.3596,25.2658,3.510281,0.1498619,0.43392837,15.9319,08/29.0/2023,2000,g 14.5,2.0
# From MPEC 2022-YN2
238P/Read,e,1.2640,51.6265,324.2054,3.165315,0.1750163,0.25134453,78.6926,08/29.0/2023,2000,g 14.5,4.0
# From MPEC 2021-F20
239P/LINEAR,e,11.3063,255.9398,220.3473,4.466615,0.1044086,0.63068734,176.7159,08/29.0/2023,2000,g 17.5,2.0
# From MPEC 2023-CD7
240P/NEAT,e,23.5347,74.9126,351.9737,3.863201,0.1298025,0.45012002,250.4576,08/29.0/2023,2000,g 11.0,4.0
# From MPEC 2022-J42
241P/LINEAR,e,21.0973,305.4530,111.5024,4.923123,0.0902284,0.61045921,68.9278,08/29.0/2023,2000,g 13.5,4.0
# From MPEC 2023-QF0
242P/Spahr,e,32.4920,180.3794,245.0211,5.517936,0.0760395,0.28041331,323.2191,08/29.0/2023,2000,g  8.0,4.0
# From MPEC 2022-K19
243P/NEAT,e,7.6428,87.5850,283.6913,3.829184,0.1315360,0.36065658,240.1664,08/29.0/2023,2000,g 12.5,4.0
# From MPEC 2023-J29
244P/Scotti,e,2.2592,354.0003,93.1840,4.898231,0.0909170,0.19957766,25.8320,08/29.0/2023,2000,g  9.0,4.0
# From MPEC 2022-CN4
245P/WISE,e,21.1825,316.6726,316.8192,4.048676,0.1209858,0.45584599,245.6177,08/29.0/2023,2000,g 14.0,4.0
# From MPEC 2023-QF0
246P/NEAT,e,16.2476,76.8557,179.3313,4.049463,0.1209506,0.29051251,110.1140,08/29.0/2023,2000,g 10.5,4.0
# From MPEC 2021-F20
247P/LINEAR,e,13.6598,54.0344,47.4010,3.966644,0.1247582,0.62501001,215.9921,08/29.0/2023,2000,g 16.5,2.0
# From MPC 75730
248P/Gibbs,e,6.3513,207.8138,209.8958,5.988155,0.0672612,0.63929691,309.6984,08/29.0/2023,2000,g 14.0,4.0
# From MPEC 2022-YN2
249P/LINEAR,e,8.3856,239.0557,65.7544,2.763984,0.2144869,0.81951003,247.8965,08/29.0/2023,2000,g 15.5,4.0
# From MPC110497
250P/Larson,e,13.1509,73.3300,46.0202,3.771347,0.1345734,0.39874579,275.5444,08/29.0/2023,2000,g 14.5,4.0
# From MPC104795
251P/LINEAR,e,23.3868,219.3419,31.2338,3.513757,0.1496396,0.50447191,334.8232,08/29.0/2023,2000,g 16.5,2.0
# From MPEC 2021-S45
252P/LINEAR,e,10.4144,190.9109,343.3984,3.051273,0.1849194,0.67087874,144.1130,08/29.0/2023,2000,g 17.5,4.0
# From MPEC 2020-FB5
253P/PANSTARRS,e,4.9436,146.8712,230.7629,3.463350,0.1529183,0.41462914,295.9458,08/29.0/2023,2000,g 14.5,4.0
# From MPEC 2023-FK0
254P/McNaught,e,32.5587,129.1878,219.7072,4.617118,0.0993454,0.31942915,105.5715,08/29.0/2023,2000,g 11.0,4.0
# From MPEC 2021-UA9
255P/Levy,e,13.4136,275.6530,186.0134,2.942144,0.1953026,0.71162954,69.4647,08/29.0/2023,2000,g 14.1,4.0
# From MPEC 2023-O39
256P/LINEAR,e,27.6212,81.3274,124.1798,4.639002,0.0986432,0.41792753,16.7517,08/29.0/2023,2000,g 14.0,2.0
# From MPEC 2023-A50
257P/Catalina,e,20.2199,207.7121,117.7846,3.765212,0.1349025,0.42967798,146.0527,08/29.0/2023,2000,g 11.5,4.0
# From MPEC 2021-U31
258P/PANSTARRS,e,6.7481,126.2331,25.6727,4.392604,0.1070584,0.20862689,125.0359,08/29.0/2023,2000,g 13.0,4.0
# From MPC106349
259P/Garradd,e,15.8974,51.4325,257.5026,2.728802,0.2186483,0.33888209,123.9554,08/29.0/2023,2000,g 15.5,4.0
# From MPEC 2022-O01
260P/McNaught,e,15.0521,349.3299,18.4678,3.623338,0.1429028,0.60929159,206.8995,08/29.0/2023,2000,g 13.5,4.0
# From MPEC 2021-J28
261P/Larson,e,6.0718,291.0864,67.3117,3.490428,0.1511423,0.42323921,231.3783,08/29.0/2023,2000,g 14.0,4.0
# From MPC 82322
262P/McNaught-Russell,e,29.3015,217.8619,171.0743,6.870653,0.0547277,0.81637801,214.2968,08/29.0/2023,2000,g 13.5,4.0
# From MPEC 2023-O39
263P/Gibbs,e,11.5221,105.5045,35.0444,3.041695,0.1857935,0.59358001,39.0940,08/29.0/2023,2000,g 18.0,4.0
# From MPC114608
264P/Larsen,e,26.2470,219.6773,345.9615,3.894772,0.1282274,0.37294121,193.7218,08/29.0/2023,2000,g 13.0,4.0
# From MPC 79870
265P/LINEAR,e,14.3577,342.9253,33.5138,4.257757,0.1121845,0.64753819,104.4150,08/29.0/2023,2000,g 14.5,4.0
# From MPEC 2021-F20
266P/Christensen,e,3.4269,4.9815,97.6716,3.530495,0.1485767,0.34026695,182.2028,08/29.0/2023,2000,g 14.7,4.0
# From MPC114608
267P/LONEOS,e,6.1447,228.5644,114.2569,3.209873,0.1713848,0.61430863,318.9031,08/29.0/2023,2000,g 19.5,4.0
# From MPC 92277
268P/Bernardi,e,15.6520,125.9272,359.8582,4.598765,0.0999407,0.47632172,312.2835,08/29.0/2023,2000,g 14.0,4.0
# From MPEC 2023-J29
269P/Jedicke,e,7.0833,241.7628,225.6634,7.065402,0.0524806,0.43221063,170.7292,08/29.0/2023,2000,g 10.0,4.0
# From MPC 88332
270P/Gehrels,e,2.9252,223.0513,209.7761,6.655782,0.0573991,0.46956506,213.9665,08/29.0/2023,2000,g  8.0,4.0
# From MPC 92277
271P/van Houten-Lemmon,e,6.8710,9.3089,36.4712,7.034148,0.0528308,0.39605143,194.9595,08/29.0/2023,2000,g 11.0,4.0
# From MPEC 2023-D41
272P/NEAT,e,18.0736,109.4551,27.8872,4.461730,0.1045801,0.45497687,42.6671,08/29.0/2023,2000,g 16.0,2.0
# From MPC 82723
273P/Pons-Gambart,e,136.5949,320.3866,20.2646,31.99559,0.0054459,0.97447243,0.0000,12/22.7460/2012,2000,g 11.5,4.0
# From MPEC 2023-M14
274P/Tombaugh-Tenagra,e,15.8172,81.3226,38.4697,4.377562,0.1076107,0.43974044,54.6130,08/29.0/2023,2000,g 13.9,4.0
# From MPC 81862
275P/Hermann,e,21.2609,348.7449,173.9130,5.784276,0.0708485,0.71313855,278.0205,08/29.0/2023,2000,g 17.0,4.0
# From MPEC 2023-QF0
276P/Vorobjov,e,14.8124,211.3401,199.4127,5.329925,0.0800981,0.26857548,322.2707,08/29.0/2023,2000,g 11.5,4.0
# From MPEC 2021-F20
277P/LINEAR,e,16.7828,276.2861,152.3581,3.853449,0.1302956,0.50633367,126.5635,08/29.0/2023,2000,g 15.1,4.0
# From MPEC 2021-S45
278P/McNaught,e,6.6910,15.3439,237.4882,3.677394,0.1397635,0.43814334,151.0948,08/29.0/2023,2000,g 14.0,4.0
# From MPEC 2022-K19
279P/LaSagra,e,5.0502,346.2194,5.8416,3.576266,0.1457335,0.39938659,19.1624,08/29.0/2023,2000,g 14.0,4.0
# From MPEC 2023-J95
280P/Larsen,e,11.7721,131.3804,104.7384,4.529289,0.1022490,0.41709070,2.4830,08/29.0/2023,2000,g 12.5,4.0
# From MPEC 2023-D41
281P/MOSS,e,4.7178,87.1749,26.6754,4.879832,0.0914317,0.17322794,19.0481,08/29.0/2023,2000,g 11.0,4.0
# From MPC133426
282P/,e,5.8118,9.2941,217.6078,4.237692,0.1129822,0.18785713,76.1156,08/29.0/2023,2000,g 13.5,2.0
# From MPEC 2022-K19
283P/Spacewatch,e,14.4566,161.1248,22.1980,4.134509,0.1172379,0.48435242,84.4411,08/29.0/2023,2000,g 16.0,2.0
# From MPEC 2023-D41
284P/McNaught,e,11.8599,144.2663,202.4548,3.676732,0.1398013,0.37517111,100.0268,08/29.0/2023,2000,g 13.0,4.0
# From MPEC 2023-B57
285P/LINEAR,e,25.0374,185.5034,178.3928,4.507505,0.1029911,0.61861016,23.5632,08/29.0/2023,2000,g 15.0,4.0
# From MPEC 2022-X67
286P/Christensen,e,17.0573,283.7575,24.8789,4.110761,0.1182553,0.42651408,56.0091,08/29.0/2023,2000,g 14.0,4.0
# From MPEC 2023-QF0
287P/Christensen,e,16.3208,139.0422,189.1675,4.164551,0.1159716,0.27142764,6.2306,08/29.0/2023,2000,g 13.5,4.0
# From MPC133426
288P/,e,3.2383,83.1225,280.2275,3.048371,0.1851836,0.20039480,100.9895,08/29.0/2023,2000,g 16.0,2.0
# From MPEC 2023-HD1
289P/Blanpain,e,5.9000,68.8908,9.8442,3.045028,0.1854886,0.68624943,249.7500,08/29.0/2023,2000,g 19.7,4.0
# From MPC 95214
290P/Jager,e,20.0242,302.6608,181.8352,6.217684,0.0635713,0.62731976,222.9432,08/29.0/2023,2000,g 10.5,4.0
# From MPEC 2023-J29
291P/NEAT,e,6.3096,237.6590,173.5094,4.535501,0.1020390,0.43441110,11.9332,08/29.0/2023,2000,g 13.0,4.0
# From MPEC 2022-K19
292P/Li,e,24.3045,90.9106,319.5721,6.100229,0.0654161,0.58987564,228.3454,08/29.0/2023,2000,g 12.5,4.0
# From MPEC 2022-L66
293P/Spacewatch,e,9.0616,78.4009,40.9213,3.639987,0.1419235,0.41871628,139.4703,08/29.0/2023,2000,g 14.5,4.0
# From MPEC 2020-SI8
294P/LINEAR,e,17.7414,310.3569,237.0062,3.188223,0.1731335,0.60302385,236.6510,08/29.0/2023,2000,g 15.5,4.0
# From MPEC 2022-K19
295P/LINEAR,e,21.0750,7.4248,72.9169,5.303910,0.0806882,0.61734632,274.5622,08/29.0/2023,2000,g 12.0,4.0
# From MPEC 2021-N06
296P/Garradd,e,25.2674,263.5334,349.9459,3.490332,0.1511485,0.47928938,162.5895,08/29.0/2023,2000,g 14.0,4.0
# From MPC102956
297P/Beshore,e,10.4116,94.5455,137.5368,3.478738,0.1519048,0.32014638,142.7004,08/29.0/2023,2000,g 15.0,4.0
# From MPC114609
298P/Christensen,e,7.8706,52.8151,100.6037,3.589787,0.1449109,0.38625005,157.5690,08/29.0/2023,2000,g 15.0,4.0
# From MPEC 2023-OA6
299P/Catalina-PANSTARRS,e,10.4672,271.5909,323.7260,4.389025,0.1071894,0.28090783,333.6763,08/29.0/2023,2000,g 11.5,4.0
# From MPEC 2023-J95
300P/Catalina,e,5.6744,95.6178,222.9541,2.698837,0.2222999,0.69172556,31.0962,08/29.0/2023,2000,g 16.0,4.0
# From MPC 89014
301P/LINEAR-NEAT,e,10.3332,351.1548,193.4991,5.743077,0.0716122,0.58563412,236.3850,08/29.0/2023,2000,g 13.0,4.0
# From MPEC 2023-N01
302P/Lemmon-PANSTARRS,e,6.0339,121.7226,208.5498,4.271781,0.1116325,0.23010971,297.7167,08/29.0/2023,2000,g 12.5,4.0
# From MPC 92278
303P/NEAT,e,7.0185,347.9556,357.0165,5.042631,0.0870399,0.51078582,281.1818,08/29.0/2023,2000,g 13.5,4.0
# From MPEC 2022-K19
304P/Ory,e,2.6075,58.9070,335.2789,3.150572,0.1762463,0.60101635,195.7674,08/29.0/2023,2000,g 16.5,4.0
# From MPC101100
305P/Skiff,e,11.6705,240.1050,147.3926,4.638305,0.0986654,0.69402904,315.9859,08/29.0/2023,2000,g 18.0,4.0
# From MPC 92278
306P/LINEAR,e,8.3063,341.3695,0.8971,3.124292,0.1784747,0.59297695,234.4575,08/29.0/2023,2000,g 19.0,4.0
# From MPC 92278
307P/LINEAR,e,4.4346,158.1521,222.1966,5.788705,0.0707672,0.67558507,224.0939,08/29.0/2023,2000,g 15.0,4.0
# From MPEC 2022-C56
308P/Lagerkvist-Carsenty,e,4.8553,63.0349,333.7151,6.599325,0.0581373,0.36474529,176.1553,08/29.0/2023,2000,g 13.0,2.0
# From MPEC 2023-QF0
309P/LINEAR,e,17.0238,10.1441,49.9350,4.374687,0.1077169,0.61835014,337.0516,08/29.0/2023,2000,g 15.0,4.0
# From MPEC 2023-QF0
